{"type": "FeatureCollection", "features": [ {"type": "Feature", "properties": {"norad_id": 34875, "name": "COSMOS 2251 DEB", "group": "cosmos-2251-debris", "lat": -23.597183484066136, "lon": 131.84424040117324, "alt_km": 731.0319693800811, "timestamp": "2025-12-22T23:36:21.112072+00:00", "meta": {"OBJECT_NAME": "COSMOS 2251 DEB", "OBJECT_ID": "1993-036ACN", "EPOCH": "2025-12-19T11:28:39.014112", "MEAN_MOTION": 14.48947014, "ECCENTRICITY": 0.0016196, "INCLINATION": 74.0433, "RA_OF_ASC_NODE": 145.5897, "ARG_OF_PERICENTER": 268.763, "MEAN_ANOMALY": 149.3216, "EPHEMERIS_TYPE": 0, "CLASSIFICATION_TYPE": "U", "NORAD_CAT_ID": 34875, "ELEMENT_SET_NO": 999, "REV_AT_EPOCH": 87853, "BSTAR": 0.00033791, "MEAN_MOTION_DOT": 1.255e-05, "MEAN_MOTION_DDOT": 0}, "tle": {"line1": "1 34875U 93036ACN 25353.47822933  .00001255  00000+0  33791-3 0  9992", "line2": "2 34875  74.0433 145.5897 0016196 268.7630 149.3216 14.48947014878533"}}, "geometry": {"type": "Point", "coordinates": [131.84424040117324, -23.597183484066136]}}, {"type": "Feature", "properties": {"norad_id": 34878, "name": "COSMOS 2251 DEB", "group": "cosmos-2251-debris", "lat": -22.785617532936516, "lon": -141.98940227983712, "alt_km": 1417.552799292097, "timestamp": "2025-12-22T23:36:21.112082+00:00", "meta": {"OBJECT_NAME": "COSMOS 2251 DEB", "OBJECT_ID": "1993-036ACR", "EPOCH": "2025-12-21T20:42:06.269184", "MEAN_MOTION": 13.44202336, "ECCENTRICITY": 0.04356411, "INCLINATION": 73.9646, "RA_OF_ASC_NODE": 32.8499, "ARG_OF_PERICENTER": 14.5745, "MEAN_ANOMALY": 167.3818, "EPHEMERIS_TYPE": 0, "CLASSIFICATION_TYPE": "U", "NORAD_CAT_ID": 34878, "ELEMENT_SET_NO": 999, "REV_AT_EPOCH": 81395, "BSTAR": 0.00060891451, "MEAN_MOTION_DOT": 6.05e-06, "MEAN_MOTION_DDOT": 0}, "tle": {"line1": "1 34878U 93036ACR 25355.86257256  .00000605  00000+0  60891-3 0  9999", "line2": "2 34878  73.9646  32.8499 0435641  14.5745 167.3818 13.44202336813959"}}, "geometry": {"type": "Point", "coordinates": [-141.98940227983712, -22.785617532936516]}}, {"type": "Feature", "properties": {"norad_id": 34882, "name": "COSMOS 2251 DEB", "group": "cosmos-2251-debris", "lat": 24.796676408895383, "lon": -146.39933970724277, "alt_km": 653.2212356938235, "timestamp": "2025-12-22T23:36:21.112092+00:00", "meta": {"OBJECT_NAME": "COSMOS 2251 DEB", "OBJECT_ID": "1993-036ACV", "EPOCH": "2025-12-22T13:37:59.630592", "MEAN_MOTION": 14.61613219, "ECCENTRICITY": 0.00833251, "INCLINATION": 74.0449, "RA_OF_ASC_NODE": 206.7999, "ARG_OF_PERICENTER": 331.387, "MEAN_ANOMALY": 28.2735, "EPHEMERIS_TYPE": 0, "CLASSIFICATION_TYPE": "U", "NORAD_CAT_ID": 34882, "ELEMENT_SET_NO": 999, "REV_AT_EPOCH": 88668, "BSTAR": 0.0001119864, "MEAN_MOTION_DOT": 5.51e-06, "MEAN_MOTION_DDOT": 0}, "tle": {"line1": "1 34882U 93036ACV 25356.56805128  .00000551  00000+0  11199-3 0  9996", "line2": "2 34882  74.0449 206.7999 0083325 331.3870  28.2735 14.61613219886680"}}, "geometry": {"type": "Point", "coordinates": [-146.39933970724277, 24.796676408895383]}}, {"type": "Feature", "properties": {"norad_id": 34883, "name": "COSMOS 2251 DEB", "group": "cosmos-2251-debris", "lat": 60.891130092070306, "lon": 74.18790626365015, "alt_km": 777.4685995210484, "timestamp": "2025-12-22T23:36:21.112103+00:00", "meta": {"OBJECT_NAME": "COSMOS 2251 DEB", "OBJECT_ID": "1993-036ACW", "EPOCH": "2025-12-18T13:27:07.209504", "MEAN_MOTION": 14.51672805, "ECCENTRICITY": 0.00951028, "INCLINATION": 74.2022, "RA_OF_ASC_NODE": 51.868, "ARG_OF_PERICENTER": 236.3156, "MEAN_ANOMALY": 122.8912, "EPHEMERIS_TYPE": 0, "CLASSIFICATION_TYPE": "U", "NORAD_CAT_ID": 34883, "ELEMENT_SET_NO": 999, "REV_AT_EPOCH": 86524, "BSTAR": 0.0028915699, "MEAN_MOTION_DOT": 0.00012297, "MEAN_MOTION_DDOT": 0}, "tle": {"line1": "1 34883U 93036ACW 25352.56050011  .00012297  00000+0  28916-2 0  9990", "line2": "2 34883  74.2022  51.8680 0095102 236.3156 122.8912 14.51672805865245"}}, "geometry": {"type": "Point", "coordinates": [74.18790626365015, 60.891130092070306]}}, {"type": "Feature", "properties": {"norad_id": 34884, "name": "COSMOS 2251 DEB", "group": "cosmos-2251-debris", "lat": -16.10924065322725, "lon": 31.46411100744333, "alt_km": 599.6871689413165, "timestamp": "2025-12-22T23:36:21.112113+00:00", "meta": {"OBJECT_NAME": "COSMOS 2251 DEB", "OBJECT_ID": "1993-036ACX", "EPOCH": "2025-12-22T09:14:44.244384", "MEAN_MOTION": 14.90465921, "ECCENTRICITY": 0.00028897, "INCLINATION": 74.0169, "RA_OF_ASC_NODE": 37.4114, "ARG_OF_PERICENTER": 38.1518, "MEAN_ANOMALY": 336.0177, "EPHEMERIS_TYPE": 0, "CLASSIFICATION_TYPE": "U", "NORAD_CAT_ID": 34884, "ELEMENT_SET_NO": 999, "REV_AT_EPOCH": 87949, "BSTAR": 0.0027328346, "MEAN_MOTION_DOT": 0.00026737, "MEAN_MOTION_DDOT": 0}, "tle": {"line1": "1 34884U 93036ACX 25356.38523431  .00026737  00000+0  27328-2 0  9996", "line2": "2 34884  74.0169  37.4114 0002889  38.1518 336.0177 14.90465921879494"}}, "geometry": {"type": "Point", "coordinates": [31.46411100744333, -16.10924065322725]}}, {"type": "Feature", "properties": {"norad_id": 34885, "name": "COSMOS 2251 DEB", "group": "cosmos-2251-debris", "lat": -57.40425049912991, "lon": 10.339198773510414, "alt_km": 716.6922508765929, "timestamp": "2025-12-22T23:36:21.112123+00:00", "meta": {"OBJECT_NAME": "COSMOS 2251 DEB", "OBJECT_ID": "1993-036ACY", "EPOCH": "2025-12-22T12:54:06.575904", "MEAN_MOTION": 14.51551085, "ECCENTRICITY": 0.00151088, "INCLINATION": 74.03, "RA_OF_ASC_NODE": 164.5728, "ARG_OF_PERICENTER": 250.0574, "MEAN_ANOMALY": 181.4414, "EPHEMERIS_TYPE": 0, "CLASSIFICATION_TYPE": "U", "NORAD_CAT_ID": 34885, "ELEMENT_SET_NO": 999, "REV_AT_EPOCH": 87621, "BSTAR": 0.00067643237, "MEAN_MOTION_DOT": 2.684e-05, "MEAN_MOTION_DDOT": 0}, "tle": {"line1": "1 34885U 93036ACY 25356.53757611  .00002684  00000+0  67643-3 0  9993", "line2": "2 34885  74.0300 164.5728 0015108 250.0574 181.4414 14.51551085876217"}}, "geometry": {"type": "Point", "coordinates": [10.339198773510414, -57.40425049912991]}}, {"type": "Feature", "properties": {"norad_id": 34886, "name": "COSMOS 2251 DEB", "group": "cosmos-2251-debris", "lat": -39.807933970061995, "lon": 144.88405697930926, "alt_km": 433.0137824857529, "timestamp": "2025-12-22T23:36:21.112133+00:00", "meta": {"OBJECT_NAME": "COSMOS 2251 DEB", "OBJECT_ID": "1993-036ACZ", "EPOCH": "2025-12-19T05:20:10.106016", "MEAN_MOTION": 15.39455892, "ECCENTRICITY": 0.0031395, "INCLINATION": 73.9504, "RA_OF_ASC_NODE": 166.9286, "ARG_OF_PERICENTER": 349.772, "MEAN_ANOMALY": 10.2844, "EPHEMERIS_TYPE": 0, "CLASSIFICATION_TYPE": "U", "NORAD_CAT_ID": 34886, "ELEMENT_SET_NO": 999, "REV_AT_EPOCH": 63098, "BSTAR": 0.0012728, "MEAN_MOTION_DOT": 0.00051055, "MEAN_MOTION_DDOT": 0}, "tle": {"line1": "1 34886U 93036ACZ 25353.22233919  .00051055  00000+0  12728-2 0  9996", "line2": "2 34886  73.9504 166.9286 0031395 349.7720  10.2844 15.39455892630986"}}, "geometry": {"type": "Point", "coordinates": [144.88405697930926, -39.807933970061995]}}, {"type": "Feature", "properties": {"norad_id": 34907, "name": "COSMOS 2251 DEB", "group": "cosmos-2251-debris", "lat": -11.142704207783538, "lon": -150.8254260436503, "alt_km": 426.42172142800155, "timestamp": "2025-12-22T23:36:21.112143+00:00", "meta": {"OBJECT_NAME": "COSMOS 2251 DEB", "OBJECT_ID": "1993-036ADC", "EPOCH": "2025-12-21T12:42:42.511680", "MEAN_MOTION": 15.49920012, "ECCENTRICITY": 0.0018559, "INCLINATION": 73.9666, "RA_OF_ASC_NODE": 29.1312, "ARG_OF_PERICENTER": 328.4772, "MEAN_ANOMALY": 31.5327, "EPHEMERIS_TYPE": 0, "CLASSIFICATION_TYPE": "U", "NORAD_CAT_ID": 34907, "ELEMENT_SET_NO": 999, "REV_AT_EPOCH": 88109, "BSTAR": 0.006372, "MEAN_MOTION_DOT": 0.00375951, "MEAN_MOTION_DDOT": 0}, "tle": {"line1": "1 34907U 93036ADC 25355.52965870  .00375951  00000+0  63720-2 0  9995", "line2": "2 34907  73.9666  29.1312 0018559 328.4772  31.5327 15.49920012881091"}}, "geometry": {"type": "Point", "coordinates": [-150.8254260436503, -11.142704207783538]}}, {"type": "Feature", "properties": {"norad_id": 34908, "name": "COSMOS 2251 DEB", "group": "cosmos-2251-debris", "lat": 35.45696677828712, "lon": 173.087160908238, "alt_km": 780.7354118700541, "timestamp": "2025-12-22T23:36:21.112153+00:00", "meta": {"OBJECT_NAME": "COSMOS 2251 DEB", "OBJECT_ID": "1993-036ADD", "EPOCH": "2025-12-21T19:23:25.564992", "MEAN_MOTION": 14.37423542, "ECCENTRICITY": 0.00404876, "INCLINATION": 74.0578, "RA_OF_ASC_NODE": 6.9921, "ARG_OF_PERICENTER": 20.3399, "MEAN_ANOMALY": 160.9032, "EPHEMERIS_TYPE": 0, "CLASSIFICATION_TYPE": "U", "NORAD_CAT_ID": 34908, "ELEMENT_SET_NO": 999, "REV_AT_EPOCH": 87409, "BSTAR": 0.00042946858, "MEAN_MOTION_DOT": 1.27e-05, "MEAN_MOTION_DDOT": 0}, "tle": {"line1": "1 34908U 93036ADD 25355.80793478  .00001270  00000+0  42947-3 0  9999", "line2": "2 34908  74.0578   6.9921 0040487  20.3399 160.9032 14.37423542874097"}}, "geometry": {"type": "Point", "coordinates": [173.087160908238, 35.45696677828712]}}, {"type": "Feature", "properties": {"norad_id": 34909, "name": "COSMOS 2251 DEB", "group": "cosmos-2251-debris", "lat": -31.120004639080594, "lon": 46.46611340352172, "alt_km": 684.9116038198572, "timestamp": "2025-12-22T23:36:21.112163+00:00", "meta": {"OBJECT_NAME": "COSMOS 2251 DEB", "OBJECT_ID": "1993-036ADE", "EPOCH": "2025-12-22T10:45:29.037600", "MEAN_MOTION": 14.77909001, "ECCENTRICITY": 0.00838548, "INCLINATION": 74.0141, "RA_OF_ASC_NODE": 57.4844, "ARG_OF_PERICENTER": 191.04, "MEAN_ANOMALY": 168.894, "EPHEMERIS_TYPE": 0, "CLASSIFICATION_TYPE": "U", "NORAD_CAT_ID": 34909, "ELEMENT_SET_NO": 999, "REV_AT_EPOCH": 66995, "BSTAR": 0.00051867971, "MEAN_MOTION_DOT": 3.926e-05, "MEAN_MOTION_DDOT": 0}, "tle": {"line1": "1 34909U 93036ADE 25356.44825275  .00003926  00000+0  51868-3 0  9994", "line2": "2 34909  74.0141  57.4844 0083854 191.0400 168.8940 14.77909001669958"}}, "geometry": {"type": "Point", "coordinates": [46.46611340352172, -31.120004639080594]}}]}